ONEWEB-0446             
1 51640U 22012U   25340.21528913 -.00000539  00000+0 -15803-2 0  9995
2 51640  87.8807  74.7592 0001411 101.9881 258.1405 13.10374090184056
ONEWEB-0448             
1 51641U 22012V   25340.22026450 -.00000596  00000+0 -17424-2 0  9990
2 51641  87.8808  74.7574 0001654 105.1889 254.9421 13.10376985184025
ONEWEB-0449             
1 51642U 22012W   25340.22524205 -.00000521  00000+0 -15297-2 0  9996
2 51642  87.8817  74.7285 0001658 121.3539 238.7751 13.10374970184030
ONEWEB-0451             
1 51643U 22012X   25340.17909059  .00000105  00000+0  23625-3 0  9996
2 51643  87.9123  44.2091 0001744 104.7432 255.3893 13.17650110188241
ONEWEB-0452             
1 51644U 22012Y   25340.17740962  .00000135  00000+0  31365-3 0  9996
2 51644  87.9114  44.2648 0001950 108.5633 251.5711 13.17649111188251
ONEWEB-0456             
1 51646U 22012AA  25340.00613854 -.00000052  00000+0 -18541-3 0  9990
2 51646  87.8828  74.7408 0001750  99.5120 260.6205 13.10376977184046
ONEWEB-0457             
1 51647U 22012AB  25340.21197158  .00001789  00000+0  50891-2 0  9997
2 51647  87.8802  74.7477 0001256 110.8573 249.2689 13.10367552184076
ONEWEB-0458             
1 51648U 22012AC  25340.23354932 -.00000212  00000+0 -64235-3 0  9995
2 51648  87.8823  74.7162 0001710 109.3881 250.7431 13.10376283184030
